$$SOE
2459580.500000000, A.D. 2022-Jan-01 00:00:00.0000, -3.312173371991674E+08, 3.966696380679790E+07, 2.850838679241702E+07,
2459587.500000000, A.D. 2022-Jan-08 00:00:00.0000, -3.308973885684762E+08, 2.761608911680960E+07, 2.820621531021401E+07,
2459594.500000000, A.D. 2022-Jan-15 00:00:00.0000, -3.301434591570642E+08, 1.552903203569569E+07, 2.786704803211293E+07,
2459601.500000000, A.D. 2022-Jan-22 00:00:00.0000, -3.289503873832467E+08, 3.421357532900814E+06, 2.749081066671622E+07,
2459608.500000000, A.D. 2022-Jan-29 00:00:00.0000, -3.273134991719626E+08, -8.690890445525676E+06, 2.707748059979180E+07,
2459615.500000000, A.D. 2022-Feb-05 00:00:00.0000, -3.252286477686226E+08, -2.079119595927976E+07, 2.662709003128726E+07,
2459622.500000000, A.D. 2022-Feb-12 00:00:00.0000, -3.226922527487370E+08, -3.286258175215213E+07, 2.613972888162912E+07,
2459629.500000000, A.D. 2022-Feb-19 00:00:00.0000, -3.197013394158601E+08, -4.488762149782839E+07, 2.561554776626665E+07,
2459636.500000000, A.D. 2022-Feb-26 00:00:00.0000, -3.162535797349144E+08, -5.684845458335955E+07, 2.505476107996431E+07,
2459643.500000000, A.D. 2022-Mar-05 00:00:00.0000, -3.123473344472441E+08, -6.872680429300080E+07, 2.445765010326501E+07,
2459650.500000000, A.D. 2022-Mar-12 00:00:00.0000, -3.079816959099920E+08, -8.050399969859219E+07, 2.382456607972729E+07,
2459657.500000000, A.D. 2022-Mar-19 00:00:00.0000, -3.031565313113784E+08, -9.216100146813318E+07, 2.315593323090197E+07,
2459664.500000000, A.D. 2022-Mar-26 00:00:00.0000, -2.978725259313956E+08, -1.036784318335374E+08, 2.245225167566973E+07,
2459671.500000000, A.D. 2022-Apr-02 00:00:00.0000, -2.921312260449041E+08, -1.150366089887155E+08, 2.171410021064012E+07,
2459678.500000000, A.D. 2022-Apr-09 00:00:00.0000, -2.859350808232467E+08, -1.262155860947544E+08, 2.094213889176171E+07,
2459685.500000000, A.D. 2022-Apr-16 00:00:00.0000, -2.792874824574130E+08, -1.371951943806278E+08, 2.013711139857022E+07,
2459692.500000000, A.D. 2022-Apr-23 00:00:00.0000, -2.721928053001457E+08, -1.479550893584949E+08, 1.929984734274226E+07,
2459699.500000000, A.D. 2022-Apr-30 00:00:00.0000, -2.646564453813510E+08, -1.584748024639415E+08, 1.843126446288023E+07,
2459706.500000000, A.D. 2022-May-07 00:00:00.0000, -2.566848566884399E+08, -1.687338001170105E+08, 1.753237021670863E+07,
2459713.500000000, A.D. 2022-May-14 00:00:00.0000, -2.482855822537732E+08, -1.787115471309154E+08, 1.660426284591757E+07,
2459720.500000000, A.D. 2022-May-21 00:00:00.0000, -2.394672814900866E+08, -1.883875736045954E+08, 1.564813211702847E+07,
2459727.500000000, A.D. 2022-May-28 00:00:00.0000, -2.302397536463850E+08, -1.977415460772745E+08, 1.466525965891655E+07,
2459734.500000000, A.D. 2022-Jun-04 00:00:00.0000, -2.206139564958364E+08, -2.067533429995295E+08, 1.365701880149242E+07,
2459741.500000000, A.D. 2022-Jun-11 00:00:00.0000, -2.106020195073341E+08, -2.154031341762542E+08, 1.262487385999389E+07,
2459748.500000000, A.D. 2022-Jun-18 00:00:00.0000, -2.002172508739766E+08, -2.236714637342068E+08, 1.157037882320909E+07,
2459755.500000000, A.D. 2022-Jun-25 00:00:00.0000, -1.894741378054991E+08, -2.315393361209960E+08, 1.049517540502070E+07,
2459762.500000000, A.D. 2022-Jul-02 00:00:00.0000, -1.783883394264257E+08, -2.389883045858253E+08, 9.400990411679953E+06,
2459769.500000000, A.D. 2022-Jul-09 00:00:00.0000, -1.669766714217680E+08, -2.460005612636803E+08, 8.289632380326867E+06,
2459776.500000000, A.D. 2022-Jul-16 00:00:00.0000, -1.552570820893484E+08, -2.525590269964901E+08, 7.162987567175493E+06,
2459783.500000000, A.D. 2022-Jul-23 00:00:00.0000, -1.432486216861064E+08, -2.586474399538179E+08, 6.023015487091646E+06,
2459790.500000000, A.D. 2022-Jul-30 00:00:00.0000, -1.309714047723859E+08, -2.642504454848637E+08, 4.871743726168692E+06,
2459797.500000000, A.D. 2022-Aug-06 00:00:00.0000, -1.184465618595451E+08, -2.693536855851997E+08, 3.711261764550328E+06,
2459804.500000000, A.D. 2022-Aug-13 00:00:00.0000, -1.056961812144756E+08, -2.739438842190275E+08, 2.543714136100188E+06,
2459811.500000000, A.D. 2022-Aug-20 00:00:00.0000, -9.274324255231385E+07, -2.780089279743084E+08, 1.371293065170050E+06,
2459818.500000000, A.D. 2022-Aug-27 00:00:00.0000, -7.961154284854424E+07, -2.815379417507780E+08, 1.962305635902584E+05,
2459825.500000000, A.D. 2022-Sep-03 00:00:00.0000, -6.632561446064691E+07, -2.845213585855554E+08, -9.792099843904525E+05,
2459832.500000000, A.D. 2022-Sep-10 00:00:00.0000, -5.291063604330122E+07, -2.869509826328644E+08, -2.152742685979351E+06,
2459839.500000000, A.D. 2022-Sep-17 00:00:00.0000, -3.939233693598580E+07, -2.888200444126793E+08, -3.322068376072004E+06,
2459846.500000000, A.D. 2022-Sep-24 00:00:00.0000, -2.579689579944551E+07, -2.901232475834292E+08, -4.484884147305503E+06,
2459853.500000000, A.D. 2022-Oct-01 00:00:00.0000, -1.215083421179822E+07, -2.908568065716552E+08, -5.638893102602676E+06,
2459860.500000000, A.D. 2022-Oct-08 00:00:00.0000, 1.519094137438026E+06, -2.910184739714436E+08, -6.781814224949256E+06,
2459867.500000000, A.D. 2022-Oct-15 00:00:00.0000, 1.518601660237765E+07, -2.906075560893247E+08, -7.911392078069940E+06,
2459874.500000000, A.D. 2022-Oct-22 00:00:00.0000, 2.882305372880758E+07, -2.896249180432278E+08, -9.025406171796039E+06,
2459881.500000000, A.D. 2022-Oct-29 00:00:00.0000, 4.240343169085883E+07, -2.880729808948017E+08, -1.012168033082744E+07,
2459888.500000000, A.D. 2022-Nov-05 00:00:00.0000, 5.590059590838475E+07, -2.859557081294713E+08, -1.119809193626119E+07,
2459895.500000000, A.D. 2022-Nov-12 00:00:00.0000, 6.928832269126619E+07, -2.832785804360604E+08, -1.225258066208190E+07,
2459902.500000000, A.D. 2022-Nov-19 00:00:00.0000, 8.254082704701330E+07, -2.800485601142788E+08, -1.328315663194156E+07,
2459909.500000000, A.D. 2022-Nov-26 00:00:00.0000, 9.563286583752112E+07, -2.762740460296640E+08, -1.428790797520161E+07,
2459916.500000000, A.D. 2022-Dec-03 00:00:00.0000, 1.085398354604843E+08, -2.719648197851152E+08, -1.526500773125224E+07,
2459923.500000000, A.D. 2022-Dec-10 00:00:00.0000, 1.212378632104511E+08, -2.671319838625757E+08, -1.621272004882336E+07,
2459930.500000000, A.D. 2022-Dec-17 00:00:00.0000, 1.337038915685725E+08, -2.617878926206884E+08, -1.712940564024140E+07,
2459937.500000000, A.D. 2022-Dec-24 00:00:00.0000, 1.459157548877114E+08, -2.559460771413441E+08, -1.801352647338156E+07,
2459944.500000000, A.D. 2022-Dec-31 00:00:00.0000, 1.578522483356200E+08, -2.496211647964596E+08, -1.886364970503838E+07,
2459951.500000000, A.D. 2023-Jan-07 00:00:00.0000, 1.694931888772050E+08, -2.428287935916055E+08, -1.967845078181650E+07,
2459958.500000000, A.D. 2023-Jan-14 00:00:00.0000, 1.808194661323349E+08, -2.355855218333782E+08, -2.045671549490879E+07,
2459965.500000000, A.D. 2023-Jan-21 00:00:00.0000, 1.918130823963630E+08, -2.279087373339000E+08, -2.119734120796302E+07,
2459972.500000000, A.D. 2023-Jan-28 00:00:00.0000, 2.024571855431799E+08, -2.198165673570130E+08, -2.189933763869640E+07,
2459979.500000000, A.D. 2023-Feb-04 00:00:00.0000, 2.127360947694070E+08, -2.113277872370882E+08, -2.256182696373741E+07,
2459986.500000000, A.D. 2023-Feb-11 00:00:00.0000, 2.226353176573438E+08, -2.024617287561583E+08, -2.318404314080007E+07,
2459993.500000000, A.D. 2023-Feb-18 00:00:00.0000, 2.321415588607497E+08, -1.932381899179938E+08, -2.376533055864307E+07,
2460000.500000000, A.D. 2023-Feb-25 00:00:00.0000, 2.412427211245179E+08, -1.836773470147457E+08, -2.430514210596919E+07,
2460007.500000000, A.D. 2023-Mar-04 00:00:00.0000, 2.499278992539669E+08, -1.737996696156079E+08, -2.480303672442257E+07,
2460014.500000000, A.D. 2023-Mar-11 00:00:00.0000, 2.581873676247620E+08, -1.636258390368188E+08, -2.525867650770009E+07,
2460021.500000000, A.D. 2023-Mar-18 00:00:00.0000, 2.660125618746379E+08, -1.531766708116460E+08, -2.567182341533263E+07,
2460028.500000000, A.D. 2023-Mar-25 00:00:00.0000, 2.733960555918337E+08, -1.424730415830954E+08, -2.604233568322913E+07,
2460035.500000000, A.D. 2023-Apr-01 00:00:00.0000, 2.803315330490466E+08, -1.315358203107586E+08, -2.637016399587797E+07,
2460042.500000000, A.D. 2023-Apr-08 00:00:00.0000, 2.868137579974481E+08, -1.203858027754743E+08, -2.665534732017944E+07,
2460049.500000000, A.D. 2023-Apr-15 00:00:00.0000, 2.928385367967392E+08, -1.090436506266632E+08, -2.689800833110450E+07,
2460056.500000000, A.D. 2023-Apr-22 00:00:00.0000, 2.984026782715728E+08, -9.752983808643964E+07, -2.709834889475035E+07,
2460063.500000000, A.D. 2023-Apr-29 00:00:00.0000, 3.035039535837247E+08, -8.586460405034424E+07, -2.725664572162344E+07,
2460070.500000000, A.D. 2023-May-06 00:00:00.0000, 3.081410548870967E+08, -7.406790774305040E+07, -2.737324592556937E+07,
2460077.500000000, A.D. 2023-May-13 00:00:00.0000, 3.123135522795234E+08, -6.215938871647504E+07, -2.744856251029187E+07,
2460084.500000000, A.D. 2023-May-20 00:00:00.0000, 3.160218497350213E+08, -5.015833153457351E+07, -2.748306987936445E+07,
2460091.500000000, A.D. 2023-May-27 00:00:00.0000, 3.192671406175126E+08, -3.808363499354802E+07, -2.747729941997190E+07,
2460098.500000000, A.D. 2023-Jun-03 00:00:00.0000, 3.220513631993628E+08, -2.595378564392591E+07, -2.743183518954724E+07,
2460105.500000000, A.D. 2023-Jun-10 00:00:00.0000, 3.243771565332615E+08, -1.378683540055353E+07, -2.734730973075472E+07,
2460112.500000000, A.D. 2023-Jun-17 00:00:00.0000, 3.262478170509145E+08, -1.600383059563678E+06, -2.722440004645183E+07,
2460119.500000000, A.D. 2023-Jun-24 00:00:00.0000, 3.276672564506516E+08, 1.058844058200555E+07, -2.706382377441871E+07,
2460126.500000000, A.D. 2023-Jul-01 00:00:00.0000, 3.286399613269185E+08, 2.276298508903354E+07, -2.686633552839578E+07,
2460133.500000000, A.D. 2023-Jul-08 00:00:00.0000, 3.291709530407488E+08, 3.490709131917307E+07, -2.663272319277679E+07,
2460140.500000000, A.D. 2023-Jul-15 00:00:00.0000, 3.292657467051686E+08, 4.700509834560167E+07, -2.636380429197704E+07,
$$EOE